NORAD_CAT_ID,OBJECT_NAME,OBJECT_TYPE,EPOCH,MEAN_MOTION,ECCENTRICITY,INCLINATION,RA_OF_ASC_NODE,ARG_OF_PERICENTER,MEAN_ANOMALY,BSTAR,MEAN_MOTION_DOT,MEAN_MOTION_DDOT,TLE_LINE0,TLE_LINE1,TLE_LINE2,SEMIMAJOR_AXIS,PERIOD,APOGEE,PERIGEE,DECAYED
54158.0,STARLINK-5297,PAYLOAD,2023-12-08 12:09:30,15.08772286,0.0001652,53.2184,105.1796,84.4327,275.6854,0.00086981,0.00013557,0.0,0 STARLINK-5297,1 54158U 22141B   23342.50660216  .00013557  00000-0  86981-3 0  9999,2 54158  53.2184 105.1796 0001652  84.4327 275.6854 15.08772286 61593,6918.087,95.442,541.095,538.81,0.0
54158.0,STARLINK-5297,PAYLOAD,2023-12-08 18:31:00,15.08859642,0.0001074,53.2181,103.9889,99.7525,260.3589,-0.00029858,-5.039e-05,0.0,0 STARLINK-5297,1 54158U 22141B   23342.77153616 -.00005039  00000-0 -29858-3 0  9997,2 54158  53.2181 103.9889 0001074  99.7525 260.3589 15.08859642 61639,6917.82,95.436,540.428,538.942,0.0
54158.0,STARLINK-5297,PAYLOAD,2023-12-09 12:00:17,15.08826841,0.0001028,53.2177,100.7184,93.0919,267.0191,0.00017239,2.456e-05,0.0,0 STARLINK-5297,1 54158U 22141B   23343.50019773  .00002456  00000-0  17239-3 0  9992,2 54158  53.2177 100.7184 0001028  93.0919 267.0191 15.08826841 61740,6917.921,95.438,540.497,539.074,0.0
54158.0,STARLINK-5297,PAYLOAD,2023-12-09 13:35:40,15.08827373,0.0001036,53.2175,100.4211,95.2198,264.8912,0.00017923,2.565e-05,0.0,0 STARLINK-5297,1 54158U 22141B   23343.56643799  .00002565  00000-0  17923-3 0  9990,2 54158  53.2175 100.4211 0001036  95.2198 264.8912 15.08827373 61756,6917.919,95.438,540.501,539.067,0.0
54158.0,STARLINK-5297,PAYLOAD,2023-12-09 16:46:26,15.08831472,0.0001048,53.2179,99.8262,92.2656,267.8456,0.00020878,3.036e-05,0.0,0 STARLINK-5297,1 54158U 22141B   23343.69891628  .00003036  00000-0  20878-3 0  9997,2 54158  53.2179  99.8262 0001048  92.2656 267.8456 15.08831472 61779,6917.906,95.438,540.496,539.046,0.0
54158.0,STARLINK-5297,PAYLOAD,2023-12-10 11:51:04,15.08840146,0.0001136,53.2184,96.2574,98.5061,261.606,9.4798e-05,1.221e-05,0.0,0 STARLINK-5297,1 54158U 22141B   23344.49379647  .00001221  00000-0  94798-4 0  9995,2 54158  53.2184  96.2574 0001136  98.5061 261.6060 15.08840146 61893,6917.88,95.438,540.531,538.959,0.0
54158.0,STARLINK-5297,PAYLOAD,2023-12-10 13:26:27,15.08841399,0.0001141,53.2184,95.9602,96.8509,263.2613,0.00010378,1.364e-05,0.0,0 STARLINK-5297,1 54158U 22141B   23344.56003558  .00001364  00000-0  10378-3 0  9997,2 54158  53.2184  95.9602 0001141  96.8509 263.2613 15.08841399 61900,6917.876,95.437,540.53,538.952,0.0
54158.0,STARLINK-5297,PAYLOAD,2023-12-10 15:01:50,15.08843876,0.0001116,53.2185,95.6632,86.6911,273.4209,0.00012231,1.659e-05,0.0,0 STARLINK-5297,1 54158U 22141B   23344.62627396  .00001659  00000-0  12231-3 0  9993,2 54158  53.2185  95.6632 0001116  86.6911 273.4209 15.08843876 61914,6917.869,95.437,540.506,538.962,0.0
54158.0,STARLINK-5297,PAYLOAD,2023-12-11 14:52:37,15.08829477,0.0001407,53.2188,91.2049,60.6663,299.447,0.00031022,4.651e-05,0.0,0 STARLINK-5297,1 54158U 22141B   23345.61987995  .00004651  00000-0  31022-3 0  9991,2 54158  53.2188  91.2049 0001407  60.6663 299.4470 15.08829477 62066,6917.913,95.438,540.751,538.804,0.0
54158.0,STARLINK-5297,PAYLOAD,2023-12-12 13:08:01,15.0882899,0.000141,53.2193,87.0397,59.7073,300.4058,0.00022541,3.3e-05,0.0,0 STARLINK-5297,1 54158U 22141B   23346.54724137  .00003300  00000-0  22541-3 0  9997,2 54158  53.2193  87.0397 0001410  59.7073 300.4058 15.08828990 62209,6917.914,95.438,540.754,538.804,0.0
54158.0,STARLINK-5297,PAYLOAD,2023-12-13 11:23:24,15.08844639,0.0001389,53.2185,82.8855,66.1433,293.9705,0.00010375,1.364e-05,0.0,0 STARLINK-5297,1 54158U 22141B   23347.47459417  .00001364  00000-0  10375-3 0  9996,2 54158  53.2185  82.8855 0001389  66.1433 293.9705 15.08844639 62347,6917.866,95.437,540.692,538.77,0.0
54158.0,STARLINK-5297,PAYLOAD,2023-12-13 12:58:47,15.08846825,0.0001532,53.2187,82.5842,61.3659,298.7487,0.00011939,1.613e-05,0.0,0 STARLINK-5297,1 54158U 22141B   23347.54083249  .00001613  00000-0  11939-3 0  9994,2 54158  53.2187  82.5842 0001532  61.3659 298.7487 15.08846825 62359,6917.86,95.437,540.784,538.665,0.0
54158.0,STARLINK-5297,PAYLOAD,2023-12-14 12:49:35,15.08842824,0.0001249,53.2184,78.1233,90.2933,269.8202,4.5656e-05,4.39e-06,0.0,0 STARLINK-5297,1 54158U 22141B   23348.53443433  .00000439  00000-0  45656-4 0  9998,2 54158  53.2184  78.1233 0001249  90.2933 269.8202 15.08842824 62508,6917.872,95.437,540.601,538.873,0.0
54158.0,STARLINK-5297,PAYLOAD,2023-12-15 11:04:59,15.08836914,0.0001376,53.2183,73.9583,66.1351,293.9785,-8.9954e-05,-1.719e-05,0.0,0 STARLINK-5297,1 54158U 22141B   23349.46180456 -.00001719  00000-0 -89954-4 0  9997,2 54158  53.2183  73.9583 0001376  66.1351 293.9785 15.08836914 62647,6917.89,95.438,540.707,538.803,0.0
54158.0,STARLINK-5297,PAYLOAD,2023-12-15 12:40:22,15.08837958,0.0001368,53.2184,73.66,73.7158,286.3984,-6.0293e-05,-1.247e-05,0.0,0 STARLINK-5297,1 54158U 22141B   23349.52804268 -.00001247  00000-0 -60293-4 0  9999,2 54158  53.2184  73.6600 0001368  73.7158 286.3984 15.08837958 62652,6917.887,95.438,540.698,538.805,0.0
54158.0,STARLINK-5297,PAYLOAD,2023-12-16 10:55:46,15.08840438,0.0001269,53.2181,69.4969,84.1534,275.9602,4.6183e-05,4.47e-06,0.0,0 STARLINK-5297,1 54158U 22141B   23350.45540075  .00000447  00000-0  46183-4 0  9997,2 54158  53.2181  69.4969 0001269  84.1534 275.9602 15.08840438 62797,6917.879,95.438,540.622,538.866,0.0
54158.0,STARLINK-5297,PAYLOAD,2023-12-16 12:31:09,15.08844937,0.0001262,53.2181,69.1985,89.493,270.6207,7.7373e-05,9.44e-06,0.0,0 STARLINK-5297,1 54158U 22141B   23350.52163712  .00000944  00000-0  77373-4 0  9991,2 54158  53.2181  69.1985 0001262  89.4930 270.6207 15.08844937 62806,6917.865,95.437,540.603,538.857,0.0
54158.0,STARLINK-5297,PAYLOAD,2023-12-17 12:21:57,15.08833508,0.0001448,53.2188,64.7364,94.0219,266.0939,5.8653e-05,6.45e-06,0.0,0 STARLINK-5297,1 54158U 22141B   23351.51524919  .00000645  00000-0  58653-4 0  9999,2 54158  53.2188  64.7364 0001448  94.0219 266.0939 15.08833508 62952,6917.9,95.438,540.767,538.764,0.0
54158.0,STARLINK-5297,PAYLOAD,2023-12-18 12:12:42,15.08862692,0.0001488,53.2188,60.2755,84.4146,275.7016,0.00015766,2.224e-05,0.0,0 STARLINK-5297,1 54158U 22141B   23352.50882897  .00002224  00000-0  15766-3 0  9993,2 54158  53.2188  60.2755 0001488  84.4146 275.7016 15.08862692 63100,6917.811,95.436,540.705,538.647,0.0
54158.0,STARLINK-5297,PAYLOAD,2023-12-19 12:03:30,15.08844559,0.0001728,53.2182,55.8181,71.2206,288.8973,6.8618e-05,8.04e-06,0.0,0 STARLINK-5297,1 54158U 22141B   23353.50244130  .00000804  00000-0  68618-4 0  9993,2 54158  53.2182  55.8181 0001728  71.2206 288.8973 15.08844559 63250,6917.866,95.437,540.927,538.536,0.0
54158.0,STARLINK-5297,PAYLOAD,2023-12-20 10:18:55,15.08837354,0.0002069,53.2194,51.6521,65.765,294.3558,-0.00012174,-2.225e-05,0.0,0 STARLINK-5297,1 54158U 22141B   23354.42980696 -.00002225  00000-0 -12174-3 0  9995,2 54158  53.2194  51.6521 0002069  65.7650 294.3558 15.08837354 63396,6917.888,95.438,541.185,538.322,0.0
54158.0,STARLINK-5297,PAYLOAD,2023-12-21 10:09:42,15.08849102,0.0001781,53.218,47.1979,78.7087,281.4105,0.00037486,5.684e-05,0.0,0 STARLINK-5297,1 54158U 22141B   23355.42340746  .00005684  00000-0  37486-3 0  9995,2 54158  53.2180  47.1979 0001781  78.7087 281.4105 15.08849102 63542,6917.853,95.437,540.95,538.485,0.0
54158.0,STARLINK-5297,PAYLOAD,2023-12-22 08:25:06,15.08845558,0.0001823,53.2186,43.0331,116.2864,243.8315,0.00019636,2.839e-05,0.0,0 STARLINK-5297,1 54158U 22141B   23356.35076697  .00002839  00000-0  19636-3 0  9995,2 54158  53.2186  43.0331 0001823 116.2864 243.8315 15.08845558 63684,6917.863,95.437,540.99,538.467,0.0
54158.0,STARLINK-5297,PAYLOAD,2023-12-23 03:29:44,15.08841998,0.0001631,53.2179,39.466,95.0511,265.0668,-0.0003102,-5.222e-05,0.0,0 STARLINK-5297,1 54158U 22141B   23357.14564902 -.00005222  00000-0 -31020-3 0  9996,2 54158  53.2179  39.4660 0001631  95.0511 265.0668 15.08841998 63805,6917.874,95.437,540.868,538.611,0.0
54158.0,STARLINK-5297,PAYLOAD,2023-12-23 13:02:02,15.08845743,0.000164,53.2164,37.6775,80.147,279.9707,3.5026e-05,2.7e-06,0.0,0 STARLINK-5297,1 54158U 22141B   23357.54308679  .00000270  00000-0  35026-4 0  9994,2 54158  53.2164  37.6775 0001640  80.1470 279.9707 15.08845743 63861,6917.863,95.437,540.862,538.593,0.0
54158.0,STARLINK-5297,PAYLOAD,2023-12-24 09:42:03,15.0884919,0.0001395,53.2176,33.8181,82.703,277.4121,0.00023795,3.502e-05,0.0,0 STARLINK-5297,1 54158U 22141B   23358.40420822  .00003502  00000-0  23795-3 0  9995,2 54158  53.2176  33.8181 0001395  82.7030 277.4121 15.08849190 63997,6917.852,95.437,540.682,538.752,0.0
54158.0,STARLINK-5297,PAYLOAD,2023-12-24 12:52:49,15.08845286,0.0001396,53.217,33.2162,87.5272,272.588,0.00017278,2.463e-05,0.0,0 STARLINK-5297,1 54158U 22141B   23358.53668889  .00002463  00000-0  17278-3 0  9990,2 54158  53.2170  33.2162 0001396  87.5272 272.5880 15.08845286 64010,6917.864,95.437,540.695,538.763,0.0
54158.0,STARLINK-5297,PAYLOAD,2023-12-24 22:25:09,15.08833746,0.0001174,53.2175,31.4283,118.9507,241.1603,0.0001607,2.27e-05,0.0,0 STARLINK-5297,1 54158U 22141B   23358.93413287  .00002270  00000-0  16070-3 0  9999,2 54158  53.2175  31.4283 0001174 118.9507 241.1603 15.08833746 64072,6917.9,95.438,540.577,538.952,0.0
54158.0,STARLINK-5297,PAYLOAD,2023-12-25 11:08:13,15.08850695,0.0001673,53.2173,29.0533,109.4086,250.7087,0.00019555,2.826e-05,0.0,0 STARLINK-5297,1 54158U 22141B   23359.46404531  .00002826  00000-0  19555-3 0  9998,2 54158  53.2173  29.0533 0001673 109.4086 250.7087 15.08850695 64155,6917.848,95.437,540.87,538.555,0.0
54158.0,STARLINK-5297,PAYLOAD,2023-12-25 22:15:55,15.08839718,0.0001985,53.2176,26.9731,126.1343,233.9833,9.5796e-05,1.237e-05,0.0,0 STARLINK-5297,1 54158U 22141B   23359.92772995  .00001237  00000-0  95796-4 0  9998,2 54158  53.2176  26.9731 0001985 126.1343 233.9833 15.08839718 64225,6917.881,95.438,541.119,538.373,0.0
